{
  "type": "FeatureCollection",
  "features": [
    {
      "type": "Feature",
      "properties": {
        "norad_id": 66520,
        "name": "STARLINK-35952",
        "group": "last-30-days",
        "lat": -30.567239373743856,
        "lon": -56.55891830140985,
        "alt_km": 387.6829549981712,
        "timestamp": "2025-12-07T14:37:03.993876+00:00",
        "meta_object_name": "STARLINK-35952",
        "meta_object_id": "2025-265E",
        "meta_epoch": "2025-12-07T00:00:02.000160",
        "meta_mean_motion": 15.63366742,
        "meta_eccentricity": 0.00016705,
        "meta_inclination": 43,
        "meta_ra_of_asc_node": 87.7328,
        "meta_arg_of_pericenter": 285.336,
        "meta_mean_anomaly": 113.8571,
        "meta_ephemeris_type": 0,
        "meta_classification_type": "U",
        "meta_norad_cat_id": 66520,
        "meta_element_set_no": 999,
        "meta_rev_at_epoch": 407,
        "meta_bstar": -0.024174207,
        "meta_mean_motion_dot": -0.02010629,
        "meta_mean_motion_ddot": 0,
        "tle_line1": "1 66520U 25265E   25341.00002315 -.02010629  00000+0 -24174-1 0  9995",
        "tle_line2": "2 66520  43.0000  87.7328 0001670 285.3360 113.8571 15.63366742  4074"
      },
      "geometry": {
        "type": "Point",
        "coordinates": [
          -56.55891830140985,
          -30.567239373743856
        ]
      }
    },
    {
      "type": "Feature",
      "properties": {
        "norad_id": 66521,
        "name": "STARLINK-35915",
        "group": "last-30-days",
        "lat": -31.56407958671402,
        "lon": -54.65422657486095,
        "alt_km": 387.71923269610124,
        "timestamp": "2025-12-07T14:37:03.993886+00:00",
        "meta_object_name": "STARLINK-35915",
        "meta_object_id": "2025-265F",
        "meta_epoch": "2025-12-07T00:00:02.000160",
        "meta_mean_motion": 15.63368325,
        "meta_eccentricity": 0.0001617,
        "meta_inclination": 43.0008,
        "meta_ra_of_asc_node": 87.7273,
        "meta_arg_of_pericenter": 285.2822,
        "meta_mean_anomaly": 115.8275,
        "meta_ephemeris_type": 0,
        "meta_classification_type": "U",
        "meta_norad_cat_id": 66521,
        "meta_element_set_no": 999,
        "meta_rev_at_epoch": 407,
        "meta_bstar": -0.024196336,
        "meta_mean_motion_dot": -0.02012309,
        "meta_mean_motion_ddot": 0,
        "tle_line1": "1 66521U 25265F   25341.00002315 -.02012309  00000+0 -24196-1 0  9997",
        "tle_line2": "2 66521  43.0008  87.7273 0001617 285.2822 115.8275 15.63368325  4077"
      },
      "geometry": {
        "type": "Point",
        "coordinates": [
          -54.65422657486095,
          -31.56407958671402
        ]
      }
    },
    {
      "type": "Feature",
      "properties": {
        "norad_id": 66522,
        "name": "STARLINK-35946",
        "group": "last-30-days",
        "lat": -32.53058978816185,
        "lon": -52.708948884747365,
        "alt_km": 387.73708107368657,
        "timestamp": "2025-12-07T14:37:03.993903+00:00",
        "meta_object_name": "STARLINK-35946",
        "meta_object_id": "2025-265G",
        "meta_epoch": "2025-12-07T00:00:02.000160",
        "meta_mean_motion": 15.63369159,
        "meta_eccentricity": 0.00016446,
        "meta_inclination": 43.0007,
        "meta_ra_of_asc_node": 87.7229,
        "meta_arg_of_pericenter": 285.7821,
        "meta_mean_anomaly": 117.2436,
        "meta_ephemeris_type": 0,
        "meta_classification_type": "U",
        "meta_norad_cat_id": 66522,
        "meta_element_set_no": 999,
        "meta_rev_at_epoch": 407,
        "meta_bstar": -0.024205331,
        "meta_mean_motion_dot": -0.02013046,
        "meta_mean_motion_ddot": 0,
        "tle_line1": "1 66522U 25265G   25341.00002315 -.02013046  00000+0 -24205-1 0  9998",
        "tle_line2": "2 66522  43.0007  87.7229 0001644 285.7821 117.2436 15.63369159  4073"
      },
      "geometry": {
        "type": "Point",
        "coordinates": [
          -52.708948884747365,
          -32.53058978816185
        ]
      }
    },
    {
      "type": "Feature",
      "properties": {
        "norad_id": 66523,
        "name": "STARLINK-35969",
        "group": "last-30-days",
        "lat": -33.46746666509238,
        "lon": -50.72072711205746,
        "alt_km": 387.7271519620681,
        "timestamp": "2025-12-07T14:37:03.993914+00:00",
        "meta_object_name": "STARLINK-35969",
        "meta_object_id": "2025-265H",
        "meta_epoch": "2025-12-07T00:00:02.000160",
        "meta_mean_motion": 15.63369587,
        "meta_eccentricity": 0.00015901,
        "meta_inclination": 43.001,
        "meta_ra_of_asc_node": 87.7181,
        "meta_arg_of_pericenter": 284.0429,
        "meta_mean_anomaly": 120.9005,
        "meta_ephemeris_type": 0,
        "meta_classification_type": "U",
        "meta_norad_cat_id": 66523,
        "meta_element_set_no": 999,
        "meta_rev_at_epoch": 407,
        "meta_bstar": -0.024217768,
        "meta_mean_motion_dot": -0.02013939,
        "meta_mean_motion_ddot": 0,
        "tle_line1": "1 66523U 25265H   25341.00002315 -.02013939  00000+0 -24218-1 0  9994",
        "tle_line2": "2 66523  43.0010  87.7181 0001590 284.0429 120.9005 15.63369587  4079"
      },
      "geometry": {
        "type": "Point",
        "coordinates": [
          -50.72072711205746,
          -33.46746666509238
        ]
      }
    },
    {
      "type": "Feature",
      "properties": {
        "norad_id": 66524,
        "name": "STARLINK-35687",
        "group": "last-30-days",
        "lat": -34.3707853918648,
        "lon": -48.6914777724373,
        "alt_km": 387.7400212123621,
        "timestamp": "2025-12-07T14:37:03.993926+00:00",
        "meta_object_name": "STARLINK-35687",
        "meta_object_id": "2025-265J",
        "meta_epoch": "2025-12-07T00:00:02.000160",
        "meta_mean_motion": 15.63370164,
        "meta_eccentricity": 0.0001607,
        "meta_inclination": 43.0009,
        "meta_ra_of_asc_node": 87.713,
        "meta_arg_of_pericenter": 284.3903,
        "meta_mean_anomaly": 122.47,
        "meta_ephemeris_type": 0,
        "meta_classification_type": "U",
        "meta_norad_cat_id": 66524,
        "meta_element_set_no": 999,
        "meta_rev_at_epoch": 407,
        "meta_bstar": -0.024229133,
        "meta_mean_motion_dot": -0.02014821,
        "meta_mean_motion_ddot": 0,
        "tle_line1": "1 66524U 25265J   25341.00002315 -.02014821  00000+0 -24229-1 0  9998",
        "tle_line2": "2 66524  43.0009  87.7130 0001607 284.3903 122.4700 15.63370164  4073"
      },
      "geometry": {
        "type": "Point",
        "coordinates": [
          -48.6914777724373,
          -34.3707853918648
        ]
      }
    },
    {
      "type": "Feature",
      "properties": {
        "norad_id": 66525,
        "name": "STARLINK-35975",
        "group": "last-30-days",
        "lat": -35.24015435675555,
        "lon": -46.616671411450845,
        "alt_km": 387.71289995578445,
        "timestamp": "2025-12-07T14:37:03.993936+00:00",
        "meta_object_name": "STARLINK-35975",
        "meta_object_id": "2025-265K",
        "meta_epoch": "2025-12-07T00:00:02.000160",
        "meta_mean_motion": 15.63365555,
        "meta_eccentricity": 0.0001623,
        "meta_inclination": 43.0005,
        "meta_ra_of_asc_node": 87.7082,
        "meta_arg_of_pericenter": 283.4418,
        "meta_mean_anomaly": 125.3397,
        "meta_ephemeris_type": 0,
        "meta_classification_type": "U",
        "meta_norad_cat_id": 66525,
        "meta_element_set_no": 999,
        "meta_rev_at_epoch": 407,
        "meta_bstar": -0.024175986,
        "meta_mean_motion_dot": -0.02010637,
        "meta_mean_motion_ddot": 0,
        "tle_line1": "1 66525U 25265K   25341.00002315 -.02010637  00000+0 -24176-1 0  9991",
        "tle_line2": "2 66525  43.0005  87.7082 0001623 283.4418 125.3397 15.63365555  4077"
      },
      "geometry": {
        "type": "Point",
        "coordinates": [
          -46.616671411450845,
          -35.24015435675555
        ]
      }
    },
    {
      "type": "Feature",
      "properties": {
        "norad_id": 66526,
        "name": "STARLINK-35932",
        "group": "last-30-days",
        "lat": -36.07287227234251,
        "lon": -44.499699575009735,
        "alt_km": 387.7886907677748,
        "timestamp": "2025-12-07T14:37:03.993946+00:00",
        "meta_object_name": "STARLINK-35932",
        "meta_object_id": "2025-265L",
        "meta_epoch": "2025-12-07T00:00:02.000160",
        "meta_mean_motion": 15.63368416,
        "meta_eccentricity": 0.00015856,
        "meta_inclination": 43.0006,
        "meta_ra_of_asc_node": 87.7035,
        "meta_arg_of_pericenter": 285.744,
        "meta_mean_anomaly": 124.9509,
        "meta_ephemeris_type": 0,
        "meta_classification_type": "U",
        "meta_norad_cat_id": 66526,
        "meta_element_set_no": 999,
        "meta_rev_at_epoch": 396,
        "meta_bstar": -0.024196977,
        "meta_mean_motion_dot": -0.02012338,
        "meta_mean_motion_ddot": 0,
        "tle_line1": "1 66526U 25265L   25341.00002315 -.02012338  00000+0 -24197-1 0  9995",
        "tle_line2": "2 66526  43.0006  87.7035 0001585 285.7440 124.9509 15.63368416  3960"
      },
      "geometry": {
        "type": "Point",
        "coordinates": [
          -44.499699575009735,
          -36.07287227234251
        ]
      }
    }
  ]
}